ORBCOMM FM05            
1 25117U 97084F   25185.35114321  .00000860  00000+0  27964-3 0  9999
2 25117  45.0155 285.6424 0003406 264.1532  95.8932 14.45983648444038
ORBCOMM FM06            
1 25118U 97084G   25184.75095358  .00000898  00000+0  28934-3 0  9990
2 25118  45.0146 288.2442 0002596 248.5430 273.9668 14.46113893443920
ORBCOMM FM07            
1 25119U 97084H   25184.66411088  .00000902  00000+0  29045-3 0  9993
2 25119  45.0145 289.4297 0004192 264.2052  95.8322 14.46112326443906
ORBCOMM FM03            
1 25158U 98007B   25185.62769754  .00000609  00000+0  25963-3 0  9994
2 25158 107.9656 171.4272 0045796 220.3767 139.3970 14.34536036426682
ORBCOMM FM04            
1 25159U 98007C   25184.91169248  .00000556  00000+0  24023-3 0  9995
2 25159 107.9644 173.1893 0041553 219.2121 140.6006 14.34781810426627
ORBCOMM FM17            
1 25413U 98046A   25184.96652533  .00000440  00000+0  20183-3 0  9995
2 25413  44.9926 178.4140 0005143 292.4948  67.5355 14.35115412405587
ORBCOMM FM18            
1 25414U 98046B   25184.46146940  .00000822  00000+0  31219-3 0  9997
2 25414  44.9931  97.7597 0006048   0.2106 359.8744 14.38587439406595
ORBCOMM FM19            
1 25415U 98046C   25184.76325721  .00000858  00000+0  32500-3 0  9990
2 25415  44.9942  98.3522 0004853 355.5094  33.2326 14.38396356406592
